NETSAT-2                
1 46507U 20068X   20329.24929447  .00000560  00000-0  47604-4 0  9991
2 46507  97.6646 262.0645 0011716  71.1966 289.0534 15.01748600  8396
SPOC                    
1 46921U 98067RR  20328.85297470  .00012871  00000-0  22946-3 0  9994
2 46921  51.6429 278.2832 0003011  46.6892 313.4348 15.50451814  2926
BOBCAT-1                
1 46922U 98067RS  20328.59498181  .00017882  00000-0  31478-3 0  9995
2 46922  51.6429 279.5602 0002854  50.2921 309.8320 15.50518985  2847
NEUTRON-1               
1 46923U 98067RT  20328.59610885  .00012840  00000-0  22965-3 0  9993
2 46923  51.6428 279.5676 0002999  56.8263 303.3013 15.50361421  2905
DESCENT                 
1 46924U 98067RU  20328.59545627  .00025112  00000-0  43725-3 0  9998
2 46924  51.6427 279.5635 0003245  78.7892 281.3462 15.50597263  2870
SAT-LLA                 
1 46927U 98067RX  20328.59699350  .00013626  00000-0  24376-3 0  9992
2 46927  51.6428 279.5733 0003215  72.8005 287.3336 15.50297345  2820
